MOLNIYA 2-9             
1 07276U 74026A   22261.01796685  .00000093  00000+0  00000+0 0  9996
2 07276  64.2801 214.2863 6444117 280.1724  17.5519  2.45097666251654
MOLNIYA 2-10            
1 07376U 74056A   22260.87977715 -.00000699  00000+0  00000+0 0  9991
2 07376  64.2307  85.1961 6744479 285.9872  13.6604  2.01080490352249
MOLNIYA 1-S             
1 07392U 74060A   22261.14552319  .00000038  00000+0  00000+0 0  9990
2 07392   4.8883 281.5484 0011756 213.5803 336.1221  1.00205084120447
MOLNIYA 1-29            
1 07780U 75036A   22260.39319382 -.00000054  00000+0 -86140-1 0  9993
2 07780  63.4156 205.0273 6871604 288.4964  12.1507  2.00621652347465
MOLNIYA 2-14            
1 08195U 75081A   22260.71577936 -.00001038  00000+0  00000+0 0  9992
2 08195  63.3850 178.1099 6779825 292.6983  11.6631  2.02084241344752
MOLNIYA 1-32            
1 08601U 76006A   22259.00509718 -.00001432  00000+0  14084-3 0  9994
2 08601  63.4813 285.0499 7227597 283.8775  11.1799  2.00013240 54478
MOLNIYA 1-36            
1 09880U 77021A   22261.01255219 -.00000531  00000+0  00000+0 0  9998
2 09880  63.5069 256.4279 7149179 289.6604  10.2490  2.00898651231319
MOLNIYA 3-8             
1 10455U 77105A   22260.23981587 -.00000932  00000+0  71969-3 0  9999
2 10455  63.4117 343.9142 7363941 282.3116  10.8738  2.00812628328987
MOLNIYA 1-40            
1 10925U 78055A   22260.43624679  .00000132  00000+0  00000+0 0  9999
2 10925  63.4173  35.0520 7266274 280.6852  11.8496  2.00733175324526
MOLNIYA 3-10            
1 11057U 78095A   22260.81723168 -.00000200  00000+0 -37182-3 0  9998
2 11057  63.1953   5.2456 5789183 311.0125  11.7529  4.09856308387511
MOLNIYA 3-13            
1 11896U 80063A   22259.18151105  .00000172  00000+0  00000+0 0  9992
2 11896  62.7145 125.8348 7113522 276.3980  13.9997  2.00663781308911
MOLNIYA 1-49            
1 12156U 81009A   22260.07497439  .00000241  00000+0  18946-2 0  9994
2 12156  61.6936 151.5531 7283496 263.6410  16.9481  2.05697216223408
MOLNIYA 1-52            
1 13012U 81123A   22261.06046529  .00000183  00000+0 -82640-2 0  9991
2 13012  61.6892 265.4079 7230817 256.0481  20.6477  2.00375081298504
MOLNIYA 1-53            
1 13070U 82015A   22260.28977501 -.00001236  00000+0 -22706-1 0  9999
2 13070  62.6126 202.9038 7019328 282.8891  12.7437  2.00698352297106
MOLNIYA 3-20            
1 13875U 83015A   22260.33157720  .00001558  00000+0  22255-2 0  9997
2 13875  62.6913 338.2310 7400602 258.9095  17.7570  2.00565719225551
MOLNIYA 1-56            
1 13890U 83019A   22259.71507330 -.00001626  00000+0  16916-3 0  9999
2 13890  62.9486   3.4499 7452337 264.8538  15.1107  1.99906771288422
MOLNIYA 1-63            
1 15429U 84124A   22259.54409160  .00000574  00000+0  00000+0 0  9993
2 15429  63.7585 159.0695 6656179 259.0745 193.6753  2.00850981276635
MOLNIYA 3-24            
1 15738U 85040A   22260.48245127 -.00000061  00000+0  00000+0 0  9992
2 15738  63.6571  65.5984 6828428 247.2468  30.5796  2.55627705306224
MOLNIYA 3-27            
1 16393U 85117A   22260.50663937 -.00000078  00000+0  00000+0 0  9999
2 16393  64.3795  69.4820 7006679 247.8831  27.9555  2.12397445276156
MOLNIYA 1-69            
1 17078U 86089A   22259.07452492  .00000195  00000+0  00000+0 0  9990
2 17078  63.9874 177.9871 6659265 257.4815  25.9242  2.00676208262660
MOLNIYA 3-31            
1 17328U 87008A   22259.67730945  .00000354  00000+0  00000+0 0  9995
2 17328  63.6938 117.8209 7067111 253.6439  23.7062  2.00634812257696
MOLNIYA 1-71            
1 18946U 88017A   22259.61937826 -.00000340  00000+0  00000+0 0  9990
2 18946  63.3979 111.5418 7179973 256.3710  21.0930  2.00628585252881
MOLNIYA 1-75            
1 19807U 89014A   22260.34162288  .00000010  00000+0  00000+0 0  9992
2 19807  64.0356 274.5335 6836263 266.6273  19.6370  2.00582021245845
MOLNIYA 1-80            
1 21118U 91012A   22261.20321686 -.00000915  00000+0  00000+0 0  9991
2 21118  65.1945 322.8477 6777971 276.4468  16.4903  2.05250514232890
MOLNIYA 3-40            
1 21196U 91022A   22259.95863641  .00000566  00000+0  00000+0 0  9990
2 21196  65.1016 316.6094 6807474 273.2728  17.3574  2.02992995231545
MOLNIYA 1-81            
1 21426U 91043A   22260.24781544 -.00000018  00000+0  00000+0 0  9997
2 21426  64.0870 332.4188 7092569 266.5046  17.5422  2.00636500229004
MOLNIYA 3-41            
1 21706U 91065A   22260.88996502  .00000873  00000+0  00000+0 0  9992
2 21706  64.0943 155.9668 6863192 255.0426  25.1348  2.04349915228814
MOLNIYA 3-42            
1 22178U 92067A   22260.88659942  .00000154  00000+0  00000+0 0  9995
2 22178  64.6734 206.2240 6423420 265.5765  23.9495  2.20435683226550
MOLNIYA 1-86            
1 22671U 93035A   22261.11866192  .00000421  00000+0  60254-3 0  9991
2 22671  63.0765 183.0517 4862499   8.5080 357.4302  5.62711937357465
MOLNIYA 1-87            
1 22949U 93079A   22260.73191429  .00001143  00000+0  00000+0 0  9999
2 22949  64.0379  81.6793 6887385 283.8475  13.3617  2.02853062211152
MOLNIYA 1-88            
1 23420U 94081A   22260.27412859  .00000067  00000+0  00000+0 0  9994
2 23420  64.2765 175.4709 5798716 281.3697  22.0209  3.34496696116772
MOLNIYA 3-47            
1 23642U 95042A   22260.86551836 -.00001185  00000+0  00000+0 0  9995
2 23642  64.1597  63.3671 6936340 284.0892  12.9958  2.01945645198975
MOLNIYA 1-90            
1 24960U 97054A   22260.97399909  .00000072  00000+0 -47576-3 0  9994
2 24960  63.6499 141.7175 6107267 298.0757  13.9381  3.18687420211034
MOLNIYA 1-91            
1 25485U 98054A   22260.63026763  .00000141  00000+0  22925-2 0  9992
2 25485  63.0506 135.8778 6772329 291.8884  27.6937  2.36442496180565
MOLNIYA 3-50            
1 25847U 99036A   22260.22236552  .00000127  00000+0 -81559-3 0  9993
2 25847  63.2351 320.2842 7368313 282.2132  10.8217  2.00668084169953
